{"type": "FeatureCollection", "features": [ {"type": "Feature", "properties": {"norad_id": 45358, "name": "COSMOS 2545 (760)", "group": "glo-ops", "lat": -3.100175178019051, "lon": 140.8096090266163, "alt_km": 19117.82572893477, "timestamp": "2025-12-02T08:59:32.975354+00:00", "meta": {"OBJECT_NAME": "COSMOS 2545 (760)", "OBJECT_ID": "2020-018A", "EPOCH": "2025-11-30T06:11:57.120864", "MEAN_MOTION": 2.13102401, "ECCENTRICITY": 0.00119448, "INCLINATION": 64.4769, "RA_OF_ASC_NODE": 319.4079, "ARG_OF_PERICENTER": 248.2158, "MEAN_ANOMALY": 111.6706, "EPHEMERIS_TYPE": 0, "CLASSIFICATION_TYPE": "U", "NORAD_CAT_ID": 45358, "ELEMENT_SET_NO": 999, "REV_AT_EPOCH": 4442, "BSTAR": 0, "MEAN_MOTION_DOT": -2.2e-07, "MEAN_MOTION_DDOT": 0}, "tle": {"line1": "1 45358U 20018A   25334.25830001 -.00000022  00000+0  00000+0 0  9995", "line2": "2 45358  64.4769 319.4079 0011944 248.2158 111.6706  2.13102401 44425"}}, "geometry": {"type": "Point", "coordinates": [140.8096090266163, -3.100175178019051]}}, {"type": "Feature", "properties": {"norad_id": 46805, "name": "COSMOS 2547 (705K)", "group": "glo-ops", "lat": 34.94533588643526, "lon": -141.57032860004335, "alt_km": 19141.91172162466, "timestamp": "2025-12-02T08:59:32.975365+00:00", "meta": {"OBJECT_NAME": "COSMOS 2547 (705K)", "OBJECT_ID": "2020-075A", "EPOCH": "2025-11-30T21:58:22.930752", "MEAN_MOTION": 2.13099889, "ECCENTRICITY": 0.00063143, "INCLINATION": 64.5957, "RA_OF_ASC_NODE": 199.0914, "ARG_OF_PERICENTER": 229.6069, "MEAN_ANOMALY": 130.4292, "EPHEMERIS_TYPE": 0, "CLASSIFICATION_TYPE": "U", "NORAD_CAT_ID": 46805, "ELEMENT_SET_NO": 999, "REV_AT_EPOCH": 3968, "BSTAR": 0, "MEAN_MOTION_DOT": 9.8e-07, "MEAN_MOTION_DDOT": 0}, "tle": {"line1": "1 46805U 20075A   25334.91554318  .00000098  00000+0  00000+0 0  9995", "line2": "2 46805  64.5957 199.0914 0006314 229.6069 130.4292  2.13099889 39688"}}, "geometry": {"type": "Point", "coordinates": [-141.57032860004335, 34.94533588643526]}}, {"type": "Feature", "properties": {"norad_id": 52984, "name": "COSMOS 2557 (706K)", "group": "glo-ops", "lat": -64.2903669987365, "lon": -122.99304680919867, "alt_km": 19101.42261685767, "timestamp": "2025-12-02T08:59:32.975377+00:00", "meta": {"OBJECT_NAME": "COSMOS 2557 (706K)", "OBJECT_ID": "2022-075A", "EPOCH": "2025-12-01T01:56:28.375008", "MEAN_MOTION": 2.13101767, "ECCENTRICITY": 0.00137561, "INCLINATION": 64.4163, "RA_OF_ASC_NODE": 321.4618, "ARG_OF_PERICENTER": 276.3647, "MEAN_ANOMALY": 83.4921, "EPHEMERIS_TYPE": 0, "CLASSIFICATION_TYPE": "U", "NORAD_CAT_ID": 52984, "ELEMENT_SET_NO": 999, "REV_AT_EPOCH": 2649, "BSTAR": 0, "MEAN_MOTION_DOT": -2.7e-07, "MEAN_MOTION_DDOT": 0}, "tle": {"line1": "1 52984U 22075A   25335.08088397 -.00000027  00000+0  00000+0 0  9993", "line2": "2 52984  64.4163 321.4618 0013756 276.3647  83.4921  2.13101767 26492"}}, "geometry": {"type": "Point", "coordinates": [-122.99304680919867, -64.2903669987365]}}, {"type": "Feature", "properties": {"norad_id": 54031, "name": "COSMOS 2559 (707K)", "group": "glo-ops", "lat": 44.64077670146148, "lon": -10.21890747726131, "alt_km": 19148.946912359395, "timestamp": "2025-12-02T08:59:32.975388+00:00", "meta": {"OBJECT_NAME": "COSMOS 2559 (707K)", "OBJECT_ID": "2022-130A", "EPOCH": "2025-11-30T21:36:02.630880", "MEAN_MOTION": 2.13101267, "ECCENTRICITY": 0.0012098, "INCLINATION": 64.3886, "RA_OF_ASC_NODE": 321.558, "ARG_OF_PERICENTER": 192.8205, "MEAN_ANOMALY": 167.1632, "EPHEMERIS_TYPE": 0, "CLASSIFICATION_TYPE": "U", "NORAD_CAT_ID": 54031, "ELEMENT_SET_NO": 999, "REV_AT_EPOCH": 2446, "BSTAR": 0, "MEAN_MOTION_DOT": -2.6e-07, "MEAN_MOTION_DDOT": 0}, "tle": {"line1": "1 54031U 22130A   25334.90003045 -.00000026  00000+0  00000+0 0  9996", "line2": "2 54031  64.3886 321.5580 0012098 192.8205 167.1632  2.13101267 24466"}}, "geometry": {"type": "Point", "coordinates": [-10.21890747726131, 44.64077670146148]}}, {"type": "Feature", "properties": {"norad_id": 54377, "name": "COSMOS 2564 (761)", "group": "glo-ops", "lat": 8.379703197733928, "lon": 15.258337927652057, "alt_km": 19111.25706615616, "timestamp": "2025-12-02T08:59:32.975399+00:00", "meta": {"OBJECT_NAME": "COSMOS 2564 (761)", "OBJECT_ID": "2022-161A", "EPOCH": "2025-12-01T05:07:31.965888", "MEAN_MOTION": 2.13101951, "ECCENTRICITY": 0.0008738, "INCLINATION": 64.7376, "RA_OF_ASC_NODE": 199.2819, "ARG_OF_PERICENTER": 206.5464, "MEAN_ANOMALY": 153.5009, "EPHEMERIS_TYPE": 0, "CLASSIFICATION_TYPE": "U", "NORAD_CAT_ID": 54377, "ELEMENT_SET_NO": 999, "REV_AT_EPOCH": 2341, "BSTAR": 0, "MEAN_MOTION_DOT": 1e-06, "MEAN_MOTION_DDOT": 0}, "tle": {"line1": "1 54377U 22161A   25335.21356442  .00000100  00000+0  00000+0 0  9992", "line2": "2 54377  64.7376 199.2819 0008738 206.5464 153.5009  2.13101951 23419"}}, "geometry": {"type": "Point", "coordinates": [15.258337927652057, 8.379703197733928]}}, {"type": "Feature", "properties": {"norad_id": 57517, "name": "COSMOS 2569 (703K)", "group": "glo-ops", "lat": 17.776835672080068, "lon": -109.25521796647288, "alt_km": 19143.27061346224, "timestamp": "2025-12-02T08:59:32.975418+00:00", "meta": {"OBJECT_NAME": "COSMOS 2569 (703K)", "OBJECT_ID": "2023-114A", "EPOCH": "2025-12-01T05:26:50.828352", "MEAN_MOTION": 2.13103848, "ECCENTRICITY": 0.0010073, "INCLINATION": 65.188, "RA_OF_ASC_NODE": 79.3026, "ARG_OF_PERICENTER": 287.0136, "MEAN_ANOMALY": 72.876, "EPHEMERIS_TYPE": 0, "CLASSIFICATION_TYPE": "U", "NORAD_CAT_ID": 57517, "ELEMENT_SET_NO": 999, "REV_AT_EPOCH": 1804, "BSTAR": 0, "MEAN_MOTION_DOT": -1.2e-07, "MEAN_MOTION_DDOT": 0}, "tle": {"line1": "1 57517U 23114A   25335.22697718 -.00000012  00000+0  00000+0 0  9998", "line2": "2 57517  65.1880  79.3026 0010073 287.0136  72.8760  2.13103848 18043"}}, "geometry": {"type": "Point", "coordinates": [-109.25521796647288, 17.776835672080068]}}, {"type": "Feature", "properties": {"norad_id": 63130, "name": "COSMOS 2584 (704K)", "group": "glo-ops", "lat": -56.89214318714482, "lon": -54.81751506959758, "alt_km": 19120.34905613916, "timestamp": "2025-12-02T08:59:32.975433+00:00", "meta": {"OBJECT_NAME": "COSMOS 2584 (704K)", "OBJECT_ID": "2025-042A", "EPOCH": "2025-11-26T10:06:10.904256", "MEAN_MOTION": 2.13103062, "ECCENTRICITY": 0.00075218, "INCLINATION": 64.9668, "RA_OF_ASC_NODE": 79.7019, "ARG_OF_PERICENTER": 212.3772, "MEAN_ANOMALY": 147.585, "EPHEMERIS_TYPE": 0, "CLASSIFICATION_TYPE": "U", "NORAD_CAT_ID": 63130, "ELEMENT_SET_NO": 999, "REV_AT_EPOCH": 572, "BSTAR": 0, "MEAN_MOTION_DOT": 1.8e-07, "MEAN_MOTION_DDOT": 0}, "tle": {"line1": "1 63130U 25042A   25330.42095954  .00000018  00000+0  00000+0 0  9994", "line2": "2 63130  64.9668  79.7019 0007521 212.3772 147.5850  2.13103062  5728"}}, "geometry": {"type": "Point", "coordinates": [-54.81751506959758, -56.89214318714482]}}, {"type": "Feature", "properties": {"norad_id": 65590, "name": "COSMOS 2596 (708K)", "group": "glo-ops", "lat": 5.611970383993152, "lon": -35.511792920583666, "alt_km": 19112.72406193727, "timestamp": "2025-12-02T08:59:32.975444+00:00", "meta": {"OBJECT_NAME": "COSMOS 2596 (708K)", "OBJECT_ID": "2025-206B", "EPOCH": "2025-12-01T01:16:47.699904", "MEAN_MOTION": 2.13100271, "ECCENTRICITY": 0.00140756, "INCLINATION": 64.7507, "RA_OF_ASC_NODE": 321.8815, "ARG_OF_PERICENTER": 304.7151, "MEAN_ANOMALY": 127.6712, "EPHEMERIS_TYPE": 0, "CLASSIFICATION_TYPE": "U", "NORAD_CAT_ID": 65590, "ELEMENT_SET_NO": 999, "REV_AT_EPOCH": 168, "BSTAR": 0, "MEAN_MOTION_DOT": -2.6e-07, "MEAN_MOTION_DDOT": 0}, "tle": {"line1": "1 65590U 25206B   25335.05332986 -.00000026  00000+0  00000+0 0  9991", "line2": "2 65590  64.7507 321.8815 0014075 304.7151 127.6712  2.13100271  1680"}}, "geometry": {"type": "Point", "coordinates": [-35.511792920583666, 5.611970383993152]}}]}